[{"OBJECT_NAME":"STARLINK-1169","OBJECT_ID":"2020-006T","EPOCH":"2026-03-09T20:32:05.286336","MEAN_MOTION":15.30189766,"ECCENTRICITY":0.0001444,"INCLINATION":53.161,"RA_OF_ASC_NODE":280.2206,"ARG_OF_PERICENTER":99.1509,"MEAN_ANOMALY":260.9655,"EPHEMERIS_TYPE":0,"CLASSIFICATION_TYPE":"U","NORAD_CAT_ID":45061,"ELEMENT_SET_NO":999,"REV_AT_EPOCH":33657,"BSTAR":-1.3365112e-5,"MEAN_MOTION_DOT":-7.55e-6,"MEAN_MOTION_DDOT":0},{"OBJECT_NAME":"GAOFEN-9 03","OBJECT_ID":"2020-039A","EPOCH":"2026-03-09T21:55:15.121344","MEAN_MOTION":15.30529116,"ECCENTRICITY":0.0013094,"INCLINATION":97.5219,"RA_OF_ASC_NODE":201.2158,"ARG_OF_PERICENTER":77.4533,"MEAN_ANOMALY":282.8172,"EPHEMERIS_TYPE":0,"CLASSIFICATION_TYPE":"U","NORAD_CAT_ID":45794,"ELEMENT_SET_NO":999,"REV_AT_EPOCH":31856,"BSTAR":0.00039258132,"MEAN_MOTION_DOT":0.00011544,"MEAN_MOTION_DDOT":0}]
